{"type": "FeatureCollection", "name": "us-indy500-oval", "features": [{"type": "Feature", "properties": {"id": "us-indy500-oval", "Location": "Speedway, Indiana", "Name": "Indianapolis Motor Speedway (Oval)", "opened": 1909, "firstgp": null, "length": 4023, "note": "Geometria gerada a partir das medidas oficiais reais do oval (retas de 3300ft/660ft, curvas de raio calculado para fechar em 2.5 milhas), ancorada nas coordenadas reais do autodromo. Nao veio do repositorio bacinger/f1-circuits (que so tem o tracado misto usado pela F1 em 2000-2007) - ver docs/AUDITORIA.md."}, "geometry": {"type": "LineString", "coordinates": [[-86.2305294, 39.7904822], [-86.2305294, 39.7919881], [-86.2305294, 39.7934941], [-86.2305294, 39.795], [-86.2305294, 39.7965059], [-86.2305294, 39.7980119], [-86.2305294, 39.7995178], [-86.2305358, 39.7996683], [-86.230555, 39.7998181], [-86.2305869, 39.7999667], [-86.2306314, 39.8001133], [-86.2306883, 39.8002574], [-86.2307573, 39.8003983], [-86.2308382, 39.8005354], [-86.2309306, 39.8006682], [-86.2310341, 39.8007961], [-86.2311482, 39.8009185], [-86.2312725, 39.8010349], [-86.2314065, 39.8011448], [-86.2315495, 39.8012477], [-86.231701, 39.8013432], [-86.2318603, 39.8014309], [-86.2320267, 39.8015104], [-86.2321995, 39.8015814], [-86.232378, 39.8016435], [-86.2325614, 39.8016966], [-86.2327489, 39.8017403], [-86.2329398, 39.8017745], [-86.2331331, 39.801799], [-86.2333282, 39.8018137], [-86.233524, 39.8018187], [-86.233916, 39.8018187], [-86.234308, 39.8018187], [-86.2347, 39.8018187], [-86.235092, 39.8018187], [-86.235484, 39.8018187], [-86.235876, 39.8018187], [-86.2360718, 39.8018137], [-86.2362669, 39.801799], [-86.2364602, 39.8017745], [-86.2366511, 39.8017403], [-86.2368386, 39.8016966], [-86.237022, 39.8016435], [-86.2372005, 39.8015814], [-86.2373733, 39.8015104], [-86.2375397, 39.8014309], [-86.237699, 39.8013432], [-86.2378505, 39.8012477], [-86.2379935, 39.8011448], [-86.2381275, 39.8010349], [-86.2382518, 39.8009185], [-86.2383659, 39.8007961], [-86.2384694, 39.8006682], [-86.2385618, 39.8005354], [-86.2386427, 39.8003983], [-86.2387117, 39.8002574], [-86.2387686, 39.8001133], [-86.2388131, 39.7999667], [-86.238845, 39.7998181], [-86.2388642, 39.7996683], [-86.2388706, 39.7995178], [-86.2388706, 39.7980119], [-86.2388706, 39.7965059], [-86.2388706, 39.795], [-86.2388706, 39.7934941], [-86.2388706, 39.7919881], [-86.2388706, 39.7904822], [-86.2388642, 39.7903317], [-86.238845, 39.7901819], [-86.2388131, 39.7900333], [-86.2387686, 39.7898867], [-86.2387117, 39.7897426], [-86.2386427, 39.7896017], [-86.2385618, 39.7894646], [-86.2384694, 39.7893318], [-86.2383659, 39.7892039], [-86.2382518, 39.7890815], [-86.2381275, 39.7889651], [-86.2379935, 39.7888552], [-86.2378505, 39.7887523], [-86.237699, 39.7886568], [-86.2375397, 39.7885691], [-86.2373733, 39.7884896], [-86.2372005, 39.7884186], [-86.237022, 39.7883565], [-86.2368386, 39.7883034], [-86.2366511, 39.7882597], [-86.2364602, 39.7882255], [-86.2362669, 39.788201], [-86.2360718, 39.7881863], [-86.235876, 39.7881813], [-86.235484, 39.7881813], [-86.235092, 39.7881813], [-86.2347, 39.7881813], [-86.234308, 39.7881813], [-86.233916, 39.7881813], [-86.233524, 39.7881813], [-86.2333282, 39.7881863], [-86.2331331, 39.788201], [-86.2329398, 39.7882255], [-86.2327489, 39.7882597], [-86.2325614, 39.7883034], [-86.232378, 39.7883565], [-86.2321995, 39.7884186], [-86.2320267, 39.7884896], [-86.2318603, 39.7885691], [-86.231701, 39.7886568], [-86.2315495, 39.7887523], [-86.2314065, 39.7888552], [-86.2312725, 39.7889651], [-86.2311482, 39.7890815], [-86.2310341, 39.7892039], [-86.2309306, 39.7893318], [-86.2308382, 39.7894646], [-86.2307573, 39.7896017], [-86.2306883, 39.7897426], [-86.2306314, 39.7898867], [-86.2305869, 39.7900333], [-86.230555, 39.7901819], [-86.2305358, 39.7903317], [-86.2305294, 39.7904822], [-86.2305294, 39.7904822]]}}]}